{"AU": {"fmt": "%O%n%N%n%A%n%C %S %Z", "id": "data/AU", "key": "AU", "lang": "en", "languages": "en", "locality_name_type": "suburb", "name": "AUSTRALIA", "posturl": "http://www1.auspost.com.au/postcodes/", "require": "ACSZ", "state_name_type": "state", "sub_isoids": "ACT~NSW~NT~QLD~SA~TAS~VIC~WA", "sub_keys": "ACT~NSW~NT~QLD~SA~TAS~VIC~WA", "sub_names": "Australian Capital Territory~New South Wales~Northern Territory~Queensland~South Australia~Tasmania~Victoria~Western Australia", "sub_zipexs": "0200,2540,2618,2999~1000,2888,3585,3707~0800,0999~4000,9999~5000~7000,7999~3000,8000~6000,0872", "sub_zips": "29|2540|260|261[0-8]|02|2620~1|2[0-57-8]|26[2-9]|261[189]|3500|358[56]|3644|3707~0[89]~[49]~5|0872~7~[38]~6|0872", "upper": "CS", "zip": "\\d{4}", "zipex": "2060,3171,6430,4000,4006,3001"}, "AU/ACT": {"id": "data/AU/ACT", "isoid": "ACT", "key": "ACT", "lang": "en", "name": "Australian Capital Territory", "zip": "29|2540|260|261[0-8]|02|2620", "zipex": "0200,2540,2618,2999"}, "AU/NSW": {"id": "data/AU/NSW", "isoid": "NSW", "key": "NSW", "lang": "en", "name": "New South Wales", "zip": "1|2[0-57-8]|26[2-9]|261[189]|3500|358[56]|3644|3707", "zipex": "1000,2888,3585,3707"}, "AU/NT": {"id": "data/AU/NT", "isoid": "NT", "key": "NT", "lang": "en", "name": "Northern Territory", "zip": "0[89]", "zipex": "0800,0999"}, "AU/QLD": {"id": "data/AU/QLD", "isoid": "QLD", "key": "QLD", "lang": "en", "name": "Queensland", "zip": "[49]", "zipex": "4000,9999"}, "AU/SA": {"id": "data/AU/SA", "isoid": "SA", "key": "SA", "lang": "en", "name": "South Australia", "zip": "5|0872", "zipex": "5000"}, "AU/TAS": {"id": "data/AU/TAS", "isoid": "TAS", "key": "TAS", "lang": "en", "name": "Tasmania", "zip": "7", "zipex": "7000,7999"}, "AU/VIC": {"id": "data/AU/VIC", "isoid": "VIC", "key": "VIC", "lang": "en", "name": "Victoria", "zip": "[38]", "zipex": "3000,8000"}, "AU/WA": {"id": "data/AU/WA", "isoid": "WA", "key": "WA", "lang": "en", "name": "Western Australia", "zip": "6|0872", "zipex": "6000,0872"}}