{"ES": {"fmt": "%N%n%O%n%A%n%Z %C %S", "id": "data/ES", "key": "ES", "lang": "es", "languages": "es~ca~gl~eu", "name": "SPAIN", "posturl": "http://www.correos.es/contenido/13-MenuRec2/04-MenuRec24/1010_s-CodPostal.asp", "require": "ACSZ", "sub_keys": "VI~AB~A~AL~O~AV~BA~B~BU~CC~CA~S~CS~CE~CR~CO~CU~GI~GR~GU~SS~H~HU~PM~J~C~LO~GC~LE~L~LU~M~MA~ML~MU~NA~OR~P~PO~SA~TF~SG~SE~SO~T~TE~TO~V~VA~BI~ZA~Z", "sub_names": "Álava~Albacete~Alicante~Almería~Asturias~Ávila~Badajoz~Barcelona~Burgos~Cáceres~Cádiz~Cantabria~Castellón~Ceuta~Ciudad Real~Córdoba~Cuenca~Girona~Granada~Guadalajara~Guipúzcoa~Huelva~Huesca~Islas Baleares~Jaén~La Coruña~La Rioja~Las Palmas~León~Lérida~Lugo~Madrid~Málaga~Melilla~Murcia~Navarra~Ourense~Palencia~Pontevedra~Salamanca~Santa Cruz de Tenerife~Segovia~Sevilla~Soria~Tarragona~Teruel~Toledo~Valencia~Valladolid~Vizcaya~Zamora~Zaragoza", "sub_zips": "01~02~03~04~33~05~06~08~09~10~11~39~12~51~13~14~16~17~18~19~20~21~22~07~23~15~26~35~24~25~27~28~29~52~30~31~32~34~36~37~38~40~41~42~43~44~45~46~47~48~49~50", "upper": "CS", "zip": "\\d{5}", "zipex": "28039,28300,28070"}, "ES--ca": {"fmt": "%N%n%O%n%A%n%Z %C %S", "id": "data/ES--ca", "key": "ES", "lang": "ca", "name": "SPAIN", "posturl": "http://www.correos.es/contenido/13-MenuRec2/04-MenuRec24/1010_s-CodPostal.asp", "require": "ACSZ", "sub_keys": "A~AB~AL~VI~O~AV~BA~B~BI~BU~CC~CA~S~CS~CE~CR~CO~CU~GI~GR~GU~SS~H~HU~PM~J~C~LO~GC~LE~L~LU~M~MA~ML~MU~NA~OR~P~PO~SA~TF~SG~SE~SO~T~TE~TO~V~VA~ZA~Z", "sub_names": "Alacant~Albacete~Almeria~Araba~Asturias~Àvila~Badajoz~Barcelona~Bizkaia~Burgos~Cáceres~Cadis~Cantabria~Castelló~Ceuta~Ciudad Real~Córdoba~Cuenca~Girona~Granada~Guadalajara~Guipúscoa~Huelva~Huesca~Illes Balears~Jaén~La Corunya~La Rioja~Las Palmas~León~Lleida~Lugo~Madrid~Málaga~Melilla~Murcia~Navarra~Ourense~Palencia~Pontevedra~Salamanca~Santa Cruz de Tenerife~Segovia~Sevilla~Soria~Tarragona~Teruel~Toledo~València~Valladolid~Zamora~Zaragoza", "sub_zips": "03~02~04~01~33~05~06~08~48~09~10~11~39~12~51~13~14~16~17~18~19~20~21~22~07~23~15~26~35~24~25~27~28~29~52~30~31~32~34~36~37~38~40~41~42~43~44~45~46~47~49~50", "upper": "CS", "zip": "\\d{5}", "zipex": "28039,28300,28070"}, "ES--eu": {"fmt": "%N%n%O%n%A%n%Z %C %S", "id": "data/ES--eu", "key": "ES", "lang": "eu", "name": "SPAIN", "posturl": "http://www.correos.es/contenido/13-MenuRec2/04-MenuRec24/1010_s-CodPostal.asp", "require": "ACSZ", "sub_keys": "A~AB~AL~VI~O~AV~BA~B~BI~BU~CC~CA~S~CS~CE~CR~C~CU~SS~GI~GR~GU~H~HU~PM~J~CO~LO~GC~LE~L~LU~M~MA~ML~MU~NA~OR~P~PO~SA~TF~SG~SE~SO~T~TE~TO~V~VA~ZA~Z", "sub_names": "Alacant~Albacete~Almería~Araba~Asturias~Ávila~Badajoz~Barcelona~Bizkaia~Burgos~Cáceres~Cádiz~Cantabria~Castelló~Ceuta~Ciudad Real~Coruña~Cuenca~Gipuzkoa~Girona~Granada~Guadalajara~Huelva~Huesca~Illes Balears~Jaén~Kordoba~La Rioja~Las Palmas~León~Lleida~Lugo~Madrid~Málaga~Melilla~Murtzia~Nafarroa~Ourense~Palentzia~Pontevedra~Salamanca~Santa Cruz Tenerifekoa~Segovia~Sevilla~Soria~Tarragona~Teruel~Toledo~Valentzia~Valladolid~Zamora~Zaragoza", "sub_zips": "03~02~04~01~33~05~06~08~48~09~10~11~39~12~51~13~15~16~20~17~18~19~21~22~07~23~14~26~35~24~25~27~28~29~52~30~31~32~34~36~37~38~40~41~42~43~44~45~46~47~49~50", "upper": "CS", "zip": "\\d{5}", "zipex": "28039,28300,28070"}, "ES--gl": {"fmt": "%N%n%O%n%A%n%Z %C %S", "id": "data/ES--gl", "key": "ES", "lang": "gl", "name": "SPAIN", "posturl": "http://www.correos.es/contenido/13-MenuRec2/04-MenuRec24/1010_s-CodPostal.asp", "require": "ACSZ", "sub_keys": "C~A~VI~AB~AL~GC~O~AV~BA~B~BI~BU~CC~CA~S~CS~CE~CR~CO~CU~GR~GU~SS~H~HU~PM~LO~LE~L~LU~M~MA~ML~MU~NA~OR~P~PO~SA~TF~SG~SE~SO~T~TE~TO~V~VA~J~GI~ZA~Z", "sub_names": "A Coruña~Alacant~Álava~Albacete~Almería~As Palmas~Asturias~Ávila~Badaxoz~Barcelona~Biscaia~Burgos~Cáceres~Cádiz~Cantabria~Castelló~Ceuta~Cidade Real~Córdoba~Cuenca~Granada~Guadalajara~Guipúscoa~Huelva~Huesca~Illas Baleares~La Rioja~León~Lleida~Lugo~Madrid~Málaga~Melilla~Murcia~Navarra~Ourense~Palencia~Pontevedra~Salamanca~Santa Cruz de Tenerife~Segovia~Sevilla~Soria~Tarragona~Teruel~Toledo~Valencia~Valladolid~Xaén~Xirona~Zamora~Zaragoza", "sub_zips": "15~03~01~02~04~35~33~05~06~08~48~09~10~11~39~12~51~13~14~16~18~19~20~21~22~07~26~24~25~27~28~29~52~30~31~32~34~36~37~38~40~41~42~43~44~45~46~47~23~17~49~50", "upper": "CS", "zip": "\\d{5}", "zipex": "28039,28300,28070"}, "ES/A": {"id": "data/ES/A", "key": "A", "lang": "es", "name": "Alicante", "zip": "03"}, "ES/A--ca": {"id": "data/ES/A--ca", "key": "A", "lang": "ca", "name": "Alacant", "zip": "03"}, "ES/A--eu": {"id": "data/ES/A--eu", "key": "A", "lang": "eu", "name": "Alacant", "zip": "03"}, "ES/A--gl": {"id": "data/ES/A--gl", "key": "A", "lang": "gl", "name": "Alacant", "zip": "03"}, "ES/AB": {"id": "data/ES/AB", "key": "AB", "lang": "es", "name": "Albacete", "zip": "02"}, "ES/AB--ca": {"id": "data/ES/AB--ca", "key": "AB", "lang": "ca", "name": "Albacete", "zip": "02"}, "ES/AB--eu": {"id": "data/ES/AB--eu", "key": "AB", "lang": "eu", "name": "Albacete", "zip": "02"}, "ES/AB--gl": {"id": "data/ES/AB--gl", "key": "AB", "lang": "gl", "name": "Albacete", "zip": "02"}, "ES/AL": {"id": "data/ES/AL", "key": "AL", "lang": "es", "name": "Almería", "zip": "04"}, "ES/AL--ca": {"id": "data/ES/AL--ca", "key": "AL", "lang": "ca", "name": "Almeria", "zip": "04"}, "ES/AL--eu": {"id": "data/ES/AL--eu", "key": "AL", "lang": "eu", "name": "Almería", "zip": "04"}, "ES/AL--gl": {"id": "data/ES/AL--gl", "key": "AL", "lang": "gl", "name": "Almería", "zip": "04"}, "ES/AV": {"id": "data/ES/AV", "key": "AV", "lang": "es", "name": "Ávila", "zip": "05"}, "ES/AV--ca": {"id": "data/ES/AV--ca", "key": "AV", "lang": "ca", "name": "Àvila", "zip": "05"}, "ES/AV--eu": {"id": "data/ES/AV--eu", "key": "AV", "lang": "eu", "name": "Ávila", "zip": "05"}, "ES/AV--gl": {"id": "data/ES/AV--gl", "key": "AV", "lang": "gl", "name": "Ávila", "zip": "05"}, "ES/B": {"id": "data/ES/B", "key": "B", "lang": "es", "name": "Barcelona", "zip": "08"}, "ES/B--ca": {"id": "data/ES/B--ca", "key": "B", "lang": "ca", "name": "Barcelona", "zip": "08"}, "ES/B--eu": {"id": "data/ES/B--eu", "key": "B", "lang": "eu", "name": "Barcelona", "zip": "08"}, "ES/B--gl": {"id": "data/ES/B--gl", "key": "B", "lang": "gl", "name": "Barcelona", "zip": "08"}, "ES/BA": {"id": "data/ES/BA", "key": "BA", "lang": "es", "name": "Badajoz", "zip": "06"}, "ES/BA--ca": {"id": "data/ES/BA--ca", "key": "BA", "lang": "ca", "name": "Badajoz", "zip": "06"}, "ES/BA--eu": {"id": "data/ES/BA--eu", "key": "BA", "lang": "eu", "name": "Badajoz", "zip": "06"}, "ES/BA--gl": {"id": "data/ES/BA--gl", "key": "BA", "lang": "gl", "name": "Badaxoz", "zip": "06"}, "ES/BI": {"id": "data/ES/BI", "key": "BI", "lang": "es", "name": "Vizcaya", "zip": "48"}, "ES/BI--ca": {"id": "data/ES/BI--ca", "key": "BI", "lang": "ca", "name": "Bizkaia", "zip": "48"}, "ES/BI--eu": {"id": "data/ES/BI--eu", "key": "BI", "lang": "eu", "name": "Bizkaia", "zip": "48"}, "ES/BI--gl": {"id": "data/ES/BI--gl", "key": "BI", "lang": "gl", "name": "Biscaia", "zip": "48"}, "ES/BU": {"id": "data/ES/BU", "key": "BU", "lang": "es", "name": "Burgos", "zip": "09"}, "ES/BU--ca": {"id": "data/ES/BU--ca", "key": "BU", "lang": "ca", "name": "Burgos", "zip": "09"}, "ES/BU--eu": {"id": "data/ES/BU--eu", "key": "BU", "lang": "eu", "name": "Burgos", "zip": "09"}, "ES/BU--gl": {"id": "data/ES/BU--gl", "key": "BU", "lang": "gl", "name": "Burgos", "zip": "09"}, "ES/C": {"id": "data/ES/C", "key": "C", "lang": "es", "name": "La Coruña", "zip": "15"}, "ES/C--ca": {"id": "data/ES/C--ca", "key": "C", "lang": "ca", "name": "La Corunya", "zip": "15"}, "ES/C--eu": {"id": "data/ES/C--eu", "key": "C", "lang": "eu", "name": "Coruña", "zip": "15"}, "ES/C--gl": {"id": "data/ES/C--gl", "key": "C", "lang": "gl", "name": "A Coruña", "zip": "15"}, "ES/CA": {"id": "data/ES/CA", "key": "CA", "lang": "es", "name": "Cádiz", "zip": "11"}, "ES/CA--ca": {"id": "data/ES/CA--ca", "key": "CA", "lang": "ca", "name": "Cadis", "zip": "11"}, "ES/CA--eu": {"id": "data/ES/CA--eu", "key": "CA", "lang": "eu", "name": "Cádiz", "zip": "11"}, "ES/CA--gl": {"id": "data/ES/CA--gl", "key": "CA", "lang": "gl", "name": "Cádiz", "zip": "11"}, "ES/CC": {"id": "data/ES/CC", "key": "CC", "lang": "es", "name": "Cáceres", "zip": "10"}, "ES/CC--ca": {"id": "data/ES/CC--ca", "key": "CC", "lang": "ca", "name": "Cáceres", "zip": "10"}, "ES/CC--eu": {"id": "data/ES/CC--eu", "key": "CC", "lang": "eu", "name": "Cáceres", "zip": "10"}, "ES/CC--gl": {"id": "data/ES/CC--gl", "key": "CC", "lang": "gl", "name": "Cáceres", "zip": "10"}, "ES/CE": {"id": "data/ES/CE", "key": "CE", "lang": "es", "name": "Ceuta", "zip": "51"}, "ES/CE--ca": {"id": "data/ES/CE--ca", "key": "CE", "lang": "ca", "name": "Ceuta", "zip": "51"}, "ES/CE--eu": {"id": "data/ES/CE--eu", "key": "CE", "lang": "eu", "name": "Ceuta", "zip": "51"}, "ES/CE--gl": {"id": "data/ES/CE--gl", "key": "CE", "lang": "gl", "name": "Ceuta", "zip": "51"}, "ES/CO": {"id": "data/ES/CO", "key": "CO", "lang": "es", "name": "Córdoba", "zip": "14"}, "ES/CO--ca": {"id": "data/ES/CO--ca", "key": "CO", "lang": "ca", "name": "Córdoba", "zip": "14"}, "ES/CO--eu": {"id": "data/ES/CO--eu", "key": "CO", "lang": "eu", "name": "Kordoba", "zip": "14"}, "ES/CO--gl": {"id": "data/ES/CO--gl", "key": "CO", "lang": "gl", "name": "Córdoba", "zip": "14"}, "ES/CR": {"id": "data/ES/CR", "key": "CR", "lang": "es", "name": "Ciudad Real", "zip": "13"}, "ES/CR--ca": {"id": "data/ES/CR--ca", "key": "CR", "lang": "ca", "name": "Ciudad Real", "zip": "13"}, "ES/CR--eu": {"id": "data/ES/CR--eu", "key": "CR", "lang": "eu", "name": "Ciudad Real", "zip": "13"}, "ES/CR--gl": {"id": "data/ES/CR--gl", "key": "CR", "lang": "gl", "name": "Cidade Real", "zip": "13"}, "ES/CS": {"id": "data/ES/CS", "key": "CS", "lang": "es", "name": "Castellón", "zip": "12"}, "ES/CS--ca": {"id": "data/ES/CS--ca", "key": "CS", "lang": "ca", "name": "Castelló", "zip": "12"}, "ES/CS--eu": {"id": "data/ES/CS--eu", "key": "CS", "lang": "eu", "name": "Castelló", "zip": "12"}, "ES/CS--gl": {"id": "data/ES/CS--gl", "key": "CS", "lang": "gl", "name": "Castelló", "zip": "12"}, "ES/CU": {"id": "data/ES/CU", "key": "CU", "lang": "es", "name": "Cuenca", "zip": "16"}, "ES/CU--ca": {"id": "data/ES/CU--ca", "key": "CU", "lang": "ca", "name": "Cuenca", "zip": "16"}, "ES/CU--eu": {"id": "data/ES/CU--eu", "key": "CU", "lang": "eu", "name": "Cuenca", "zip": "16"}, "ES/CU--gl": {"id": "data/ES/CU--gl", "key": "CU", "lang": "gl", "name": "Cuenca", "zip": "16"}, "ES/GC": {"id": "data/ES/GC", "key": "GC", "lang": "es", "name": "Las Palmas", "zip": "35"}, "ES/GC--ca": {"id": "data/ES/GC--ca", "key": "GC", "lang": "ca", "name": "Las Palmas", "zip": "35"}, "ES/GC--eu": {"id": "data/ES/GC--eu", "key": "GC", "lang": "eu", "name": "Las Palmas", "zip": "35"}, "ES/GC--gl": {"id": "data/ES/GC--gl", "key": "GC", "lang": "gl", "name": "As Palmas", "zip": "35"}, "ES/GI": {"id": "data/ES/GI", "key": "GI", "lang": "es", "name": "Girona", "zip": "17"}, "ES/GI--ca": {"id": "data/ES/GI--ca", "key": "GI", "lang": "ca", "name": "Girona", "zip": "17"}, "ES/GI--eu": {"id": "data/ES/GI--eu", "key": "GI", "lang": "eu", "name": "Girona", "zip": "17"}, "ES/GI--gl": {"id": "data/ES/GI--gl", "key": "GI", "lang": "gl", "name": "Xirona", "zip": "17"}, "ES/GR": {"id": "data/ES/GR", "key": "GR", "lang": "es", "name": "Granada", "zip": "18"}, "ES/GR--ca": {"id": "data/ES/GR--ca", "key": "GR", "lang": "ca", "name": "Granada", "zip": "18"}, "ES/GR--eu": {"id": "data/ES/GR--eu", "key": "GR", "lang": "eu", "name": "Granada", "zip": "18"}, "ES/GR--gl": {"id": "data/ES/GR--gl", "key": "GR", "lang": "gl", "name": "Granada", "zip": "18"}, "ES/GU": {"id": "data/ES/GU", "key": "GU", "lang": "es", "name": "Guadalajara", "zip": "19"}, "ES/GU--ca": {"id": "data/ES/GU--ca", "key": "GU", "lang": "ca", "name": "Guadalajara", "zip": "19"}, "ES/GU--eu": {"id": "data/ES/GU--eu", "key": "GU", "lang": "eu", "name": "Guadalajara", "zip": "19"}, "ES/GU--gl": {"id": "data/ES/GU--gl", "key": "GU", "lang": "gl", "name": "Guadalajara", "zip": "19"}, "ES/H": {"id": "data/ES/H", "key": "H", "lang": "es", "name": "Huelva", "zip": "21"}, "ES/H--ca": {"id": "data/ES/H--ca", "key": "H", "lang": "ca", "name": "Huelva", "zip": "21"}, "ES/H--eu": {"id": "data/ES/H--eu", "key": "H", "lang": "eu", "name": "Huelva", "zip": "21"}, "ES/H--gl": {"id": "data/ES/H--gl", "key": "H", "lang": "gl", "name": "Huelva", "zip": "21"}, "ES/HU": {"id": "data/ES/HU", "key": "HU", "lang": "es", "name": "Huesca", "zip": "22"}, "ES/HU--ca": {"id": "data/ES/HU--ca", "key": "HU", "lang": "ca", "name": "Huesca", "zip": "22"}, "ES/HU--eu": {"id": "data/ES/HU--eu", "key": "HU", "lang": "eu", "name": "Huesca", "zip": "22"}, "ES/HU--gl": {"id": "data/ES/HU--gl", "key": "HU", "lang": "gl", "name": "Huesca", "zip": "22"}, "ES/J": {"id": "data/ES/J", "key": "J", "lang": "es", "name": "Jaén", "zip": "23"}, "ES/J--ca": {"id": "data/ES/J--ca", "key": "J", "lang": "ca", "name": "Jaén", "zip": "23"}, "ES/J--eu": {"id": "data/ES/J--eu", "key": "J", "lang": "eu", "name": "Jaén", "zip": "23"}, "ES/J--gl": {"id": "data/ES/J--gl", "key": "J", "lang": "gl", "name": "Xaén", "zip": "23"}, "ES/L": {"id": "data/ES/L", "key": "L", "lang": "es", "name": "Lérida", "zip": "25"}, "ES/L--ca": {"id": "data/ES/L--ca", "key": "L", "lang": "ca", "name": "Lleida", "zip": "25"}, "ES/L--eu": {"id": "data/ES/L--eu", "key": "L", "lang": "eu", "name": "Lleida", "zip": "25"}, "ES/L--gl": {"id": "data/ES/L--gl", "key": "L", "lang": "gl", "name": "Lleida", "zip": "25"}, "ES/LE": {"id": "data/ES/LE", "key": "LE", "lang": "es", "name": "León", "zip": "24"}, "ES/LE--ca": {"id": "data/ES/LE--ca", "key": "LE", "lang": "ca", "name": "León", "zip": "24"}, "ES/LE--eu": {"id": "data/ES/LE--eu", "key": "LE", "lang": "eu", "name": "León", "zip": "24"}, "ES/LE--gl": {"id": "data/ES/LE--gl", "key": "LE", "lang": "gl", "name": "León", "zip": "24"}, "ES/LO": {"id": "data/ES/LO", "key": "LO", "lang": "es", "name": "La Rioja", "zip": "26"}, "ES/LO--ca": {"id": "data/ES/LO--ca", "key": "LO", "lang": "ca", "name": "La Rioja", "zip": "26"}, "ES/LO--eu": {"id": "data/ES/LO--eu", "key": "LO", "lang": "eu", "name": "La Rioja", "zip": "26"}, "ES/LO--gl": {"id": "data/ES/LO--gl", "key": "LO", "lang": "gl", "name": "La Rioja", "zip": "26"}, "ES/LU": {"id": "data/ES/LU", "key": "LU", "lang": "es", "name": "Lugo", "zip": "27"}, "ES/LU--ca": {"id": "data/ES/LU--ca", "key": "LU", "lang": "ca", "name": "Lugo", "zip": "27"}, "ES/LU--eu": {"id": "data/ES/LU--eu", "key": "LU", "lang": "eu", "name": "Lugo", "zip": "27"}, "ES/LU--gl": {"id": "data/ES/LU--gl", "key": "LU", "lang": "gl", "name": "Lugo", "zip": "27"}, "ES/M": {"id": "data/ES/M", "key": "M", "lang": "es", "name": "Madrid", "zip": "28"}, "ES/M--ca": {"id": "data/ES/M--ca", "key": "M", "lang": "ca", "name": "Madrid", "zip": "28"}, "ES/M--eu": {"id": "data/ES/M--eu", "key": "M", "lang": "eu", "name": "Madrid", "zip": "28"}, "ES/M--gl": {"id": "data/ES/M--gl", "key": "M", "lang": "gl", "name": "Madrid", "zip": "28"}, "ES/MA": {"id": "data/ES/MA", "key": "MA", "lang": "es", "name": "Málaga", "zip": "29"}, "ES/MA--ca": {"id": "data/ES/MA--ca", "key": "MA", "lang": "ca", "name": "Málaga", "zip": "29"}, "ES/MA--eu": {"id": "data/ES/MA--eu", "key": "MA", "lang": "eu", "name": "Málaga", "zip": "29"}, "ES/MA--gl": {"id": "data/ES/MA--gl", "key": "MA", "lang": "gl", "name": "Málaga", "zip": "29"}, "ES/ML": {"id": "data/ES/ML", "key": "ML", "lang": "es", "name": "Melilla", "zip": "52"}, "ES/ML--ca": {"id": "data/ES/ML--ca", "key": "ML", "lang": "ca", "name": "Melilla", "zip": "52"}, "ES/ML--eu": {"id": "data/ES/ML--eu", "key": "ML", "lang": "eu", "name": "Melilla", "zip": "52"}, "ES/ML--gl": {"id": "data/ES/ML--gl", "key": "ML", "lang": "gl", "name": "Melilla", "zip": "52"}, "ES/MU": {"id": "data/ES/MU", "key": "MU", "lang": "es", "name": "Murcia", "zip": "30"}, "ES/MU--ca": {"id": "data/ES/MU--ca", "key": "MU", "lang": "ca", "name": "Murcia", "zip": "30"}, "ES/MU--eu": {"id": "data/ES/MU--eu", "key": "MU", "lang": "eu", "name": "Murtzia", "zip": "30"}, "ES/MU--gl": {"id": "data/ES/MU--gl", "key": "MU", "lang": "gl", "name": "Murcia", "zip": "30"}, "ES/NA": {"id": "data/ES/NA", "key": "NA", "lang": "es", "name": "Navarra", "zip": "31"}, "ES/NA--ca": {"id": "data/ES/NA--ca", "key": "NA", "lang": "ca", "name": "Navarra", "zip": "31"}, "ES/NA--eu": {"id": "data/ES/NA--eu", "key": "NA", "lang": "eu", "name": "Nafarroa", "zip": "31"}, "ES/NA--gl": {"id": "data/ES/NA--gl", "key": "NA", "lang": "gl", "name": "Navarra", "zip": "31"}, "ES/O": {"id": "data/ES/O", "key": "O", "lang": "es", "name": "Asturias", "zip": "33"}, "ES/O--ca": {"id": "data/ES/O--ca", "key": "O", "lang": "ca", "name": "Asturias", "zip": "33"}, "ES/O--eu": {"id": "data/ES/O--eu", "key": "O", "lang": "eu", "name": "Asturias", "zip": "33"}, "ES/O--gl": {"id": "data/ES/O--gl", "key": "O", "lang": "gl", "name": "Asturias", "zip": "33"}, "ES/OR": {"id": "data/ES/OR", "key": "OR", "lang": "es", "name": "Ourense", "zip": "32"}, "ES/OR--ca": {"id": "data/ES/OR--ca", "key": "OR", "lang": "ca", "name": "Ourense", "zip": "32"}, "ES/OR--eu": {"id": "data/ES/OR--eu", "key": "OR", "lang": "eu", "name": "Ourense", "zip": "32"}, "ES/OR--gl": {"id": "data/ES/OR--gl", "key": "OR", "lang": "gl", "name": "Ourense", "zip": "32"}, "ES/P": {"id": "data/ES/P", "key": "P", "lang": "es", "name": "Palencia", "zip": "34"}, "ES/P--ca": {"id": "data/ES/P--ca", "key": "P", "lang": "ca", "name": "Palencia", "zip": "34"}, "ES/P--eu": {"id": "data/ES/P--eu", "key": "P", "lang": "eu", "name": "Palentzia", "zip": "34"}, "ES/P--gl": {"id": "data/ES/P--gl", "key": "P", "lang": "gl", "name": "Palencia", "zip": "34"}, "ES/PM": {"id": "data/ES/PM", "key": "PM", "lang": "es", "name": "Islas Baleares", "zip": "07"}, "ES/PM--ca": {"id": "data/ES/PM--ca", "key": "PM", "lang": "ca", "name": "Illes Balears", "zip": "07"}, "ES/PM--eu": {"id": "data/ES/PM--eu", "key": "PM", "lang": "eu", "name": "Illes Balears", "zip": "07"}, "ES/PM--gl": {"id": "data/ES/PM--gl", "key": "PM", "lang": "gl", "name": "Illas Baleares", "zip": "07"}, "ES/PO": {"id": "data/ES/PO", "key": "PO", "lang": "es", "name": "Pontevedra", "zip": "36"}, "ES/PO--ca": {"id": "data/ES/PO--ca", "key": "PO", "lang": "ca", "name": "Pontevedra", "zip": "36"}, "ES/PO--eu": {"id": "data/ES/PO--eu", "key": "PO", "lang": "eu", "name": "Pontevedra", "zip": "36"}, "ES/PO--gl": {"id": "data/ES/PO--gl", "key": "PO", "lang": "gl", "name": "Pontevedra", "zip": "36"}, "ES/S": {"id": "data/ES/S", "key": "S", "lang": "es", "name": "Cantabria", "zip": "39"}, "ES/S--ca": {"id": "data/ES/S--ca", "key": "S", "lang": "ca", "name": "Cantabria", "zip": "39"}, "ES/S--eu": {"id": "data/ES/S--eu", "key": "S", "lang": "eu", "name": "Cantabria", "zip": "39"}, "ES/S--gl": {"id": "data/ES/S--gl", "key": "S", "lang": "gl", "name": "Cantabria", "zip": "39"}, "ES/SA": {"id": "data/ES/SA", "key": "SA", "lang": "es", "name": "Salamanca", "zip": "37"}, "ES/SA--ca": {"id": "data/ES/SA--ca", "key": "SA", "lang": "ca", "name": "Salamanca", "zip": "37"}, "ES/SA--eu": {"id": "data/ES/SA--eu", "key": "SA", "lang": "eu", "name": "Salamanca", "zip": "37"}, "ES/SA--gl": {"id": "data/ES/SA--gl", "key": "SA", "lang": "gl", "name": "Salamanca", "zip": "37"}, "ES/SE": {"id": "data/ES/SE", "key": "SE", "lang": "es", "name": "Sevilla", "zip": "41"}, "ES/SE--ca": {"id": "data/ES/SE--ca", "key": "SE", "lang": "ca", "name": "Sevilla", "zip": "41"}, "ES/SE--eu": {"id": "data/ES/SE--eu", "key": "SE", "lang": "eu", "name": "Sevilla", "zip": "41"}, "ES/SE--gl": {"id": "data/ES/SE--gl", "key": "SE", "lang": "gl", "name": "Sevilla", "zip": "41"}, "ES/SG": {"id": "data/ES/SG", "key": "SG", "lang": "es", "name": "Segovia", "zip": "40"}, "ES/SG--ca": {"id": "data/ES/SG--ca", "key": "SG", "lang": "ca", "name": "Segovia", "zip": "40"}, "ES/SG--eu": {"id": "data/ES/SG--eu", "key": "SG", "lang": "eu", "name": "Segovia", "zip": "40"}, "ES/SG--gl": {"id": "data/ES/SG--gl", "key": "SG", "lang": "gl", "name": "Segovia", "zip": "40"}, "ES/SO": {"id": "data/ES/SO", "key": "SO", "lang": "es", "name": "Soria", "zip": "42"}, "ES/SO--ca": {"id": "data/ES/SO--ca", "key": "SO", "lang": "ca", "name": "Soria", "zip": "42"}, "ES/SO--eu": {"id": "data/ES/SO--eu", "key": "SO", "lang": "eu", "name": "Soria", "zip": "42"}, "ES/SO--gl": {"id": "data/ES/SO--gl", "key": "SO", "lang": "gl", "name": "Soria", "zip": "42"}, "ES/SS": {"id": "data/ES/SS", "key": "SS", "lang": "es", "name": "Guipúzcoa", "zip": "20"}, "ES/SS--ca": {"id": "data/ES/SS--ca", "key": "SS", "lang": "ca", "name": "Guipúscoa", "zip": "20"}, "ES/SS--eu": {"id": "data/ES/SS--eu", "key": "SS", "lang": "eu", "name": "Gipuzkoa", "zip": "20"}, "ES/SS--gl": {"id": "data/ES/SS--gl", "key": "SS", "lang": "gl", "name": "Guipúscoa", "zip": "20"}, "ES/T": {"id": "data/ES/T", "key": "T", "lang": "es", "name": "Tarragona", "zip": "43"}, "ES/T--ca": {"id": "data/ES/T--ca", "key": "T", "lang": "ca", "name": "Tarragona", "zip": "43"}, "ES/T--eu": {"id": "data/ES/T--eu", "key": "T", "lang": "eu", "name": "Tarragona", "zip": "43"}, "ES/T--gl": {"id": "data/ES/T--gl", "key": "T", "lang": "gl", "name": "Tarragona", "zip": "43"}, "ES/TE": {"id": "data/ES/TE", "key": "TE", "lang": "es", "name": "Teruel", "zip": "44"}, "ES/TE--ca": {"id": "data/ES/TE--ca", "key": "TE", "lang": "ca", "name": "Teruel", "zip": "44"}, "ES/TE--eu": {"id": "data/ES/TE--eu", "key": "TE", "lang": "eu", "name": "Teruel", "zip": "44"}, "ES/TE--gl": {"id": "data/ES/TE--gl", "key": "TE", "lang": "gl", "name": "Teruel", "zip": "44"}, "ES/TF": {"id": "data/ES/TF", "key": "TF", "lang": "es", "name": "Santa Cruz de Tenerife", "zip": "38"}, "ES/TF--ca": {"id": "data/ES/TF--ca", "key": "TF", "lang": "ca", "name": "Santa Cruz de Tenerife", "zip": "38"}, "ES/TF--eu": {"id": "data/ES/TF--eu", "key": "TF", "lang": "eu", "name": "Santa Cruz Tenerifekoa", "zip": "38"}, "ES/TF--gl": {"id": "data/ES/TF--gl", "key": "TF", "lang": "gl", "name": "Santa Cruz de Tenerife", "zip": "38"}, "ES/TO": {"id": "data/ES/TO", "key": "TO", "lang": "es", "name": "Toledo", "zip": "45"}, "ES/TO--ca": {"id": "data/ES/TO--ca", "key": "TO", "lang": "ca", "name": "Toledo", "zip": "45"}, "ES/TO--eu": {"id": "data/ES/TO--eu", "key": "TO", "lang": "eu", "name": "Toledo", "zip": "45"}, "ES/TO--gl": {"id": "data/ES/TO--gl", "key": "TO", "lang": "gl", "name": "Toledo", "zip": "45"}, "ES/V": {"id": "data/ES/V", "key": "V", "lang": "es", "name": "Valencia", "zip": "46"}, "ES/V--ca": {"id": "data/ES/V--ca", "key": "V", "lang": "ca", "name": "València", "zip": "46"}, "ES/V--eu": {"id": "data/ES/V--eu", "key": "V", "lang": "eu", "name": "Valentzia", "zip": "46"}, "ES/V--gl": {"id": "data/ES/V--gl", "key": "V", "lang": "gl", "name": "Valencia", "zip": "46"}, "ES/VA": {"id": "data/ES/VA", "key": "VA", "lang": "es", "name": "Valladolid", "zip": "47"}, "ES/VA--ca": {"id": "data/ES/VA--ca", "key": "VA", "lang": "ca", "name": "Valladolid", "zip": "47"}, "ES/VA--eu": {"id": "data/ES/VA--eu", "key": "VA", "lang": "eu", "name": "Valladolid", "zip": "47"}, "ES/VA--gl": {"id": "data/ES/VA--gl", "key": "VA", "lang": "gl", "name": "Valladolid", "zip": "47"}, "ES/VI": {"id": "data/ES/VI", "key": "VI", "lang": "es", "name": "Álava", "zip": "01"}, "ES/VI--ca": {"id": "data/ES/VI--ca", "key": "VI", "lang": "ca", "name": "Araba", "zip": "01"}, "ES/VI--eu": {"id": "data/ES/VI--eu", "key": "VI", "lang": "eu", "name": "Araba", "zip": "01"}, "ES/VI--gl": {"id": "data/ES/VI--gl", "key": "VI", "lang": "gl", "name": "Álava", "zip": "01"}, "ES/Z": {"id": "data/ES/Z", "key": "Z", "lang": "es", "name": "Zaragoza", "zip": "50"}, "ES/Z--ca": {"id": "data/ES/Z--ca", "key": "Z", "lang": "ca", "name": "Zaragoza", "zip": "50"}, "ES/Z--eu": {"id": "data/ES/Z--eu", "key": "Z", "lang": "eu", "name": "Zaragoza", "zip": "50"}, "ES/Z--gl": {"id": "data/ES/Z--gl", "key": "Z", "lang": "gl", "name": "Zaragoza", "zip": "50"}, "ES/ZA": {"id": "data/ES/ZA", "key": "ZA", "lang": "es", "name": "Zamora", "zip": "49"}, "ES/ZA--ca": {"id": "data/ES/ZA--ca", "key": "ZA", "lang": "ca", "name": "Zamora", "zip": "49"}, "ES/ZA--eu": {"id": "data/ES/ZA--eu", "key": "ZA", "lang": "eu", "name": "Zamora", "zip": "49"}, "ES/ZA--gl": {"id": "data/ES/ZA--gl", "key": "ZA", "lang": "gl", "name": "Zamora", "zip": "49"}}