{"IT": {"fmt": "%N%n%O%n%A%n%Z %C %S", "id": "data/IT", "key": "IT", "lang": "it", "languages": "it", "name": "ITALY", "posturl": "http://www.poste.it/online/cercacap/", "require": "ACSZ", "sub_isoids": "AG~AL~AN~AO~AR~AP~AT~AV~BA~BT~BL~BN~BG~BI~BO~BZ~BS~BR~CA~CL~CB~CI~CE~CT~CZ~CH~CO~CS~CR~KR~CN~EN~FM~FE~FI~FG~FC~FR~GE~GO~GR~IM~IS~AQ~SP~LT~LE~LC~LI~LO~LU~MC~MN~MS~MT~VS~ME~MI~MO~MB~NA~NO~NU~OG~OT~OR~PD~PA~PR~PV~PG~PU~PE~PC~PI~PT~PN~PZ~PO~RG~RA~RC~RE~RI~RN~RM~RO~SA~SS~SV~SI~SR~SO~TA~TE~TR~TO~TP~TN~TV~TS~UD~VA~VE~VB~VC~VR~VV~VI~VT", "sub_keys": "AG~AL~AN~AO~AR~AP~AT~AV~BA~BT~BL~BN~BG~BI~BO~BZ~BS~BR~CA~CL~CB~CI~CE~CT~CZ~CH~CO~CS~CR~KR~CN~EN~FM~FE~FI~FG~FC~FR~GE~GO~GR~IM~IS~AQ~SP~LT~LE~LC~LI~LO~LU~MC~MN~MS~MT~VS~ME~MI~MO~MB~NA~NO~NU~OG~OT~OR~PD~PA~PR~PV~PG~PU~PE~PC~PI~PT~PN~PZ~PO~RG~RA~RC~RE~RI~RN~RM~RO~SA~SS~SV~SI~SR~SO~TA~TE~TR~TO~TP~TN~TV~TS~UD~VA~VE~VB~VC~VR~VV~VI~VT", "sub_names": "Agrigento~Alessandria~Ancona~Aosta~Arezzo~Ascoli Piceno~Asti~Avellino~Bari~Barletta-Andria-Trani~Belluno~Benevento~Bergamo~Biella~Bologna~Bolzano~Brescia~Brindisi~Cagliari~Caltanissetta~Campobasso~Carbonia-Iglesias~Caserta~Catania~Catanzaro~Chieti~Como~Cosenza~Cremona~Crotone~Cuneo~Enna~Fermo~Ferrara~Firenze~Foggia~Forlì-Cesena~Frosinone~Genova~Gorizia~Grosseto~Imperia~Isernia~L'Aquila~La Spezia~Latina~Lecce~Lecco~Livorno~Lodi~Lucca~Macerata~Mantova~Massa-Carrara~Matera~Medio Campidano~Messina~Milano~Modena~Monza e Brianza~Napoli~Novara~Nuoro~Ogliastra~Olbia-Tempio~Oristano~Padova~Palermo~Parma~Pavia~Perugia~Pesaro e Urbino~Pescara~Piacenza~Pisa~Pistoia~Pordenone~Potenza~Prato~Ragusa~Ravenna~Reggio Calabria~Reggio Emilia~Rieti~Rimini~Roma~Rovigo~Salerno~Sassari~Savona~Siena~Siracusa~Sondrio~Taranto~Teramo~Terni~Torino~Trapani~Trento~Treviso~Trieste~Udine~Varese~Venezia~Verbano-Cusio-Ossola~Vercelli~Verona~Vibo Valentia~Vicenza~Viterbo", "sub_zips": "92~15~60~11~52~63~14~83~70~76[01]~32~82~24~13[89]~40~39~25~72~0912[1-9]|0913[0-4]|0901[0289]|0902[03468]|0903[0234]|0904|0803[035]|08043~93~860[1-4]|86100~0901[013-7]~81~95~88[01]~66~22~87~26[01]~88[89]~12|18025~94~638|63900~44~50~71~47[015]~03~16~34[01]7~58~18~860[7-9]|86170~67~19~04~73~23[89]~57~26[89]~55~62~46~54~75~0902[012579]|0903[015-9]|09040~98~20~41~208|20900~80~28[01]~080[1-3]|08100~08037|0804[024-9]~08020|0702|0703[08]~090[7-9]|09170|0801[039]|0803[04]~35~90~43~27~06~61~65~29~56~51~330[7-9]|33170~85~59~97~48~89[01]~42~02~47[89]~00~45~84~070[14]|0703[0-79]|07100~17|12071~53~96~23[01]~74~64~05~10~91~38~31~3401|341[0-689]|34062~330[1-5]|33100~21~30~28[89]~13[01]~37~89[89]~36~01", "upper": "CS", "zip": "\\d{5}", "zipex": "00144,47037,39049"}, "IT/AG": {"id": "data/IT/AG", "isoid": "AG", "key": "AG", "lang": "it", "name": "Agrigento", "zip": "92"}, "IT/AL": {"id": "data/IT/AL", "isoid": "AL", "key": "AL", "lang": "it", "name": "Alessandria", "zip": "15"}, "IT/AN": {"id": "data/IT/AN", "isoid": "AN", "key": "AN", "lang": "it", "name": "Ancona", "zip": "60"}, "IT/AO": {"id": "data/IT/AO", "isoid": "AO", "key": "AO", "lang": "it", "name": "Aosta", "zip": "11"}, "IT/AP": {"id": "data/IT/AP", "isoid": "AP", "key": "AP", "lang": "it", "name": "Ascoli Piceno", "zip": "63"}, "IT/AQ": {"id": "data/IT/AQ", "isoid": "AQ", "key": "AQ", "lang": "it", "name": "L'Aquila", "zip": "67"}, "IT/AR": {"id": "data/IT/AR", "isoid": "AR", "key": "AR", "lang": "it", "name": "Arezzo", "zip": "52"}, "IT/AT": {"id": "data/IT/AT", "isoid": "AT", "key": "AT", "lang": "it", "name": "Asti", "zip": "14"}, "IT/AV": {"id": "data/IT/AV", "isoid": "AV", "key": "AV", "lang": "it", "name": "Avellino", "zip": "83"}, "IT/BA": {"id": "data/IT/BA", "isoid": "BA", "key": "BA", "lang": "it", "name": "Bari", "zip": "70"}, "IT/BG": {"id": "data/IT/BG", "isoid": "BG", "key": "BG", "lang": "it", "name": "Bergamo", "zip": "24"}, "IT/BI": {"id": "data/IT/BI", "isoid": "BI", "key": "BI", "lang": "it", "name": "Biella", "zip": "13[89]"}, "IT/BL": {"id": "data/IT/BL", "isoid": "BL", "key": "BL", "lang": "it", "name": "Belluno", "zip": "32"}, "IT/BN": {"id": "data/IT/BN", "isoid": "BN", "key": "BN", "lang": "it", "name": "Benevento", "zip": "82"}, "IT/BO": {"id": "data/IT/BO", "isoid": "BO", "key": "BO", "lang": "it", "name": "Bologna", "zip": "40"}, "IT/BR": {"id": "data/IT/BR", "isoid": "BR", "key": "BR", "lang": "it", "name": "Brindisi", "zip": "72"}, "IT/BS": {"id": "data/IT/BS", "isoid": "BS", "key": "BS", "lang": "it", "name": "Brescia", "zip": "25"}, "IT/BT": {"id": "data/IT/BT", "isoid": "BT", "key": "BT", "lang": "it", "name": "Barletta-Andria-Trani", "zip": "76[01]"}, "IT/BZ": {"id": "data/IT/BZ", "isoid": "BZ", "key": "BZ", "lang": "it", "name": "Bolzano", "zip": "39"}, "IT/CA": {"id": "data/IT/CA", "isoid": "CA", "key": "CA", "lang": "it", "name": "Cagliari", "zip": "0912[1-9]|0913[0-4]|0901[0289]|0902[03468]|0903[0234]|0904|0803[035]|08043"}, "IT/CB": {"id": "data/IT/CB", "isoid": "CB", "key": "CB", "lang": "it", "name": "Campobasso", "zip": "860[1-4]|86100"}, "IT/CE": {"id": "data/IT/CE", "isoid": "CE", "key": "CE", "lang": "it", "name": "Caserta", "zip": "81"}, "IT/CH": {"id": "data/IT/CH", "isoid": "CH", "key": "CH", "lang": "it", "name": "Chieti", "zip": "66"}, "IT/CI": {"id": "data/IT/CI", "isoid": "CI", "key": "CI", "lang": "it", "name": "Carbonia-Iglesias", "zip": "0901[013-7]"}, "IT/CL": {"id": "data/IT/CL", "isoid": "CL", "key": "CL", "lang": "it", "name": "Caltanissetta", "zip": "93"}, "IT/CN": {"id": "data/IT/CN", "isoid": "CN", "key": "CN", "lang": "it", "name": "Cuneo", "zip": "12|18025"}, "IT/CO": {"id": "data/IT/CO", "isoid": "CO", "key": "CO", "lang": "it", "name": "Como", "zip": "22"}, "IT/CR": {"id": "data/IT/CR", "isoid": "CR", "key": "CR", "lang": "it", "name": "Cremona", "zip": "26[01]"}, "IT/CS": {"id": "data/IT/CS", "isoid": "CS", "key": "CS", "lang": "it", "name": "Cosenza", "zip": "87"}, "IT/CT": {"id": "data/IT/CT", "isoid": "CT", "key": "CT", "lang": "it", "name": "Catania", "zip": "95"}, "IT/CZ": {"id": "data/IT/CZ", "isoid": "CZ", "key": "CZ", "lang": "it", "name": "Catanzaro", "zip": "88[01]"}, "IT/EN": {"id": "data/IT/EN", "isoid": "EN", "key": "EN", "lang": "it", "name": "Enna", "zip": "94"}, "IT/FC": {"id": "data/IT/FC", "isoid": "FC", "key": "FC", "lang": "it", "name": "Forlì-Cesena", "zip": "47[015]"}, "IT/FE": {"id": "data/IT/FE", "isoid": "FE", "key": "FE", "lang": "it", "name": "Ferrara", "zip": "44"}, "IT/FG": {"id": "data/IT/FG", "isoid": "FG", "key": "FG", "lang": "it", "name": "Foggia", "zip": "71"}, "IT/FI": {"id": "data/IT/FI", "isoid": "FI", "key": "FI", "lang": "it", "name": "Firenze", "zip": "50"}, "IT/FM": {"id": "data/IT/FM", "isoid": "FM", "key": "FM", "lang": "it", "name": "Fermo", "zip": "638|63900"}, "IT/FR": {"id": "data/IT/FR", "isoid": "FR", "key": "FR", "lang": "it", "name": "Frosinone", "zip": "03"}, "IT/GE": {"id": "data/IT/GE", "isoid": "GE", "key": "GE", "lang": "it", "name": "Genova", "zip": "16"}, "IT/GO": {"id": "data/IT/GO", "isoid": "GO", "key": "GO", "lang": "it", "name": "Gorizia", "zip": "34[01]7"}, "IT/GR": {"id": "data/IT/GR", "isoid": "GR", "key": "GR", "lang": "it", "name": "Grosseto", "zip": "58"}, "IT/IM": {"id": "data/IT/IM", "isoid": "IM", "key": "IM", "lang": "it", "name": "Imperia", "zip": "18"}, "IT/IS": {"id": "data/IT/IS", "isoid": "IS", "key": "IS", "lang": "it", "name": "Isernia", "zip": "860[7-9]|86170"}, "IT/KR": {"id": "data/IT/KR", "isoid": "KR", "key": "KR", "lang": "it", "name": "Crotone", "zip": "88[89]"}, "IT/LC": {"id": "data/IT/LC", "isoid": "LC", "key": "LC", "lang": "it", "name": "Lecco", "zip": "23[89]"}, "IT/LE": {"id": "data/IT/LE", "isoid": "LE", "key": "LE", "lang": "it", "name": "Lecce", "zip": "73"}, "IT/LI": {"id": "data/IT/LI", "isoid": "LI", "key": "LI", "lang": "it", "name": "Livorno", "zip": "57"}, "IT/LO": {"id": "data/IT/LO", "isoid": "LO", "key": "LO", "lang": "it", "name": "Lodi", "zip": "26[89]"}, "IT/LT": {"id": "data/IT/LT", "isoid": "LT", "key": "LT", "lang": "it", "name": "Latina", "zip": "04"}, "IT/LU": {"id": "data/IT/LU", "isoid": "LU", "key": "LU", "lang": "it", "name": "Lucca", "zip": "55"}, "IT/MB": {"id": "data/IT/MB", "isoid": "MB", "key": "MB", "lang": "it", "name": "Monza e Brianza", "zip": "208|20900"}, "IT/MC": {"id": "data/IT/MC", "isoid": "MC", "key": "MC", "lang": "it", "name": "Macerata", "zip": "62"}, "IT/ME": {"id": "data/IT/ME", "isoid": "ME", "key": "ME", "lang": "it", "name": "Messina", "zip": "98"}, "IT/MI": {"id": "data/IT/MI", "isoid": "MI", "key": "MI", "lang": "it", "name": "Milano", "zip": "20"}, "IT/MN": {"id": "data/IT/MN", "isoid": "MN", "key": "MN", "lang": "it", "name": "Mantova", "zip": "46"}, "IT/MO": {"id": "data/IT/MO", "isoid": "MO", "key": "MO", "lang": "it", "name": "Modena", "zip": "41"}, "IT/MS": {"id": "data/IT/MS", "isoid": "MS", "key": "MS", "lang": "it", "name": "Massa-Carrara", "zip": "54"}, "IT/MT": {"id": "data/IT/MT", "isoid": "MT", "key": "MT", "lang": "it", "name": "Matera", "zip": "75"}, "IT/NA": {"id": "data/IT/NA", "isoid": "NA", "key": "NA", "lang": "it", "name": "Napoli", "zip": "80"}, "IT/NO": {"id": "data/IT/NO", "isoid": "NO", "key": "NO", "lang": "it", "name": "Novara", "zip": "28[01]"}, "IT/NU": {"id": "data/IT/NU", "isoid": "NU", "key": "NU", "lang": "it", "name": "Nuoro", "zip": "080[1-3]|08100"}, "IT/OG": {"id": "data/IT/OG", "isoid": "OG", "key": "OG", "lang": "it", "name": "Ogliastra", "zip": "08037|0804[024-9]"}, "IT/OR": {"id": "data/IT/OR", "isoid": "OR", "key": "OR", "lang": "it", "name": "Oristano", "zip": "090[7-9]|09170|0801[039]|0803[04]"}, "IT/OT": {"id": "data/IT/OT", "isoid": "OT", "key": "OT", "lang": "it", "name": "Olbia-Tempio", "zip": "08020|0702|0703[08]"}, "IT/PA": {"id": "data/IT/PA", "isoid": "PA", "key": "PA", "lang": "it", "name": "Palermo", "zip": "90"}, "IT/PC": {"id": "data/IT/PC", "isoid": "PC", "key": "PC", "lang": "it", "name": "Piacenza", "zip": "29"}, "IT/PD": {"id": "data/IT/PD", "isoid": "PD", "key": "PD", "lang": "it", "name": "Padova", "zip": "35"}, "IT/PE": {"id": "data/IT/PE", "isoid": "PE", "key": "PE", "lang": "it", "name": "Pescara", "zip": "65"}, "IT/PG": {"id": "data/IT/PG", "isoid": "PG", "key": "PG", "lang": "it", "name": "Perugia", "zip": "06"}, "IT/PI": {"id": "data/IT/PI", "isoid": "PI", "key": "PI", "lang": "it", "name": "Pisa", "zip": "56"}, "IT/PN": {"id": "data/IT/PN", "isoid": "PN", "key": "PN", "lang": "it", "name": "Pordenone", "zip": "330[7-9]|33170"}, "IT/PO": {"id": "data/IT/PO", "isoid": "PO", "key": "PO", "lang": "it", "name": "Prato", "zip": "59"}, "IT/PR": {"id": "data/IT/PR", "isoid": "PR", "key": "PR", "lang": "it", "name": "Parma", "zip": "43"}, "IT/PT": {"id": "data/IT/PT", "isoid": "PT", "key": "PT", "lang": "it", "name": "Pistoia", "zip": "51"}, "IT/PU": {"id": "data/IT/PU", "isoid": "PU", "key": "PU", "lang": "it", "name": "Pesaro e Urbino", "zip": "61"}, "IT/PV": {"id": "data/IT/PV", "isoid": "PV", "key": "PV", "lang": "it", "name": "Pavia", "zip": "27"}, "IT/PZ": {"id": "data/IT/PZ", "isoid": "PZ", "key": "PZ", "lang": "it", "name": "Potenza", "zip": "85"}, "IT/RA": {"id": "data/IT/RA", "isoid": "RA", "key": "RA", "lang": "it", "name": "Ravenna", "zip": "48"}, "IT/RC": {"id": "data/IT/RC", "isoid": "RC", "key": "RC", "lang": "it", "name": "Reggio Calabria", "zip": "89[01]"}, "IT/RE": {"id": "data/IT/RE", "isoid": "RE", "key": "RE", "lang": "it", "name": "Reggio Emilia", "zip": "42"}, "IT/RG": {"id": "data/IT/RG", "isoid": "RG", "key": "RG", "lang": "it", "name": "Ragusa", "zip": "97"}, "IT/RI": {"id": "data/IT/RI", "isoid": "RI", "key": "RI", "lang": "it", "name": "Rieti", "zip": "02"}, "IT/RM": {"id": "data/IT/RM", "isoid": "RM", "key": "RM", "lang": "it", "name": "Roma", "zip": "00"}, "IT/RN": {"id": "data/IT/RN", "isoid": "RN", "key": "RN", "lang": "it", "name": "Rimini", "zip": "47[89]"}, "IT/RO": {"id": "data/IT/RO", "isoid": "RO", "key": "RO", "lang": "it", "name": "Rovigo", "zip": "45"}, "IT/SA": {"id": "data/IT/SA", "isoid": "SA", "key": "SA", "lang": "it", "name": "Salerno", "zip": "84"}, "IT/SI": {"id": "data/IT/SI", "isoid": "SI", "key": "SI", "lang": "it", "name": "Siena", "zip": "53"}, "IT/SO": {"id": "data/IT/SO", "isoid": "SO", "key": "SO", "lang": "it", "name": "Sondrio", "zip": "23[01]"}, "IT/SP": {"id": "data/IT/SP", "isoid": "SP", "key": "SP", "lang": "it", "name": "La Spezia", "zip": "19"}, "IT/SR": {"id": "data/IT/SR", "isoid": "SR", "key": "SR", "lang": "it", "name": "Siracusa", "zip": "96"}, "IT/SS": {"id": "data/IT/SS", "isoid": "SS", "key": "SS", "lang": "it", "name": "Sassari", "zip": "070[14]|0703[0-79]|07100"}, "IT/SV": {"id": "data/IT/SV", "isoid": "SV", "key": "SV", "lang": "it", "name": "Savona", "zip": "17|12071"}, "IT/TA": {"id": "data/IT/TA", "isoid": "TA", "key": "TA", "lang": "it", "name": "Taranto", "zip": "74"}, "IT/TE": {"id": "data/IT/TE", "isoid": "TE", "key": "TE", "lang": "it", "name": "Teramo", "zip": "64"}, "IT/TN": {"id": "data/IT/TN", "isoid": "TN", "key": "TN", "lang": "it", "name": "Trento", "zip": "38"}, "IT/TO": {"id": "data/IT/TO", "isoid": "TO", "key": "TO", "lang": "it", "name": "Torino", "zip": "10"}, "IT/TP": {"id": "data/IT/TP", "isoid": "TP", "key": "TP", "lang": "it", "name": "Trapani", "zip": "91"}, "IT/TR": {"id": "data/IT/TR", "isoid": "TR", "key": "TR", "lang": "it", "name": "Terni", "zip": "05"}, "IT/TS": {"id": "data/IT/TS", "isoid": "TS", "key": "TS", "lang": "it", "name": "Trieste", "zip": "3401|341[0-689]|34062"}, "IT/TV": {"id": "data/IT/TV", "isoid": "TV", "key": "TV", "lang": "it", "name": "Treviso", "zip": "31"}, "IT/UD": {"id": "data/IT/UD", "isoid": "UD", "key": "UD", "lang": "it", "name": "Udine", "zip": "330[1-5]|33100"}, "IT/VA": {"id": "data/IT/VA", "isoid": "VA", "key": "VA", "lang": "it", "name": "Varese", "zip": "21"}, "IT/VB": {"id": "data/IT/VB", "isoid": "VB", "key": "VB", "lang": "it", "name": "Verbano-Cusio-Ossola", "zip": "28[89]"}, "IT/VC": {"id": "data/IT/VC", "isoid": "VC", "key": "VC", "lang": "it", "name": "Vercelli", "zip": "13[01]"}, "IT/VE": {"id": "data/IT/VE", "isoid": "VE", "key": "VE", "lang": "it", "name": "Venezia", "zip": "30"}, "IT/VI": {"id": "data/IT/VI", "isoid": "VI", "key": "VI", "lang": "it", "name": "Vicenza", "zip": "36"}, "IT/VR": {"id": "data/IT/VR", "isoid": "VR", "key": "VR", "lang": "it", "name": "Verona", "zip": "37"}, "IT/VS": {"id": "data/IT/VS", "isoid": "VS", "key": "VS", "lang": "it", "name": "Medio Campidano", "zip": "0902[012579]|0903[015-9]|09040"}, "IT/VT": {"id": "data/IT/VT", "isoid": "VT", "key": "VT", "lang": "it", "name": "Viterbo", "zip": "01"}, "IT/VV": {"id": "data/IT/VV", "isoid": "VV", "key": "VV", "lang": "it", "name": "Vibo Valentia", "zip": "89[89]"}}